#cP2005  4 19 00 00 00.00000000    8638 U+u   IGS00 FIT DEOS
## 1319 172800.00000000    10.00000000 53479 0.0000000000000
+    1   L06  0  0  0  0  0  0  0  0  0  0  0  0  0  0  0  0
+          0  0  0  0  0  0  0  0  0  0  0  0  0  0  0  0  0
+          0  0  0  0  0  0  0  0  0  0  0  0  0  0  0  0  0
+          0  0  0  0  0  0  0  0  0  0  0  0  0  0  0  0  0
+          0  0  0  0  0  0  0  0  0  0  0  0  0  0  0  0  0
++         0  0  0  0  0  0  0  0  0  0  0  0  0  0  0  0  0
++         0  0  0  0  0  0  0  0  0  0  0  0  0  0  0  0  0
++         0  0  0  0  0  0  0  0  0  0  0  0  0  0  0  0  0
++         0  0  0  0  0  0  0  0  0  0  0  0  0  0  0  0  0
++         0  0  0  0  0  0  0  0  0  0  0  0  0  0  0  0  0
%c cc cc ccc ccc cccc cccc cccc cccc ccccc ccccc ccccc ccccc
%c cc cc ccc ccc cccc cccc cccc cccc ccccc ccccc ccccc ccccc
%f   .0000000   .000000000   .00000000000   .000000000000000
%f   .0000000   .000000000   .00000000000   .000000000000000
%i    0    0    0    0      0      0      0      0         0
%i    0    0    0    0      0      0      0      0         0
/* NOTE: CCCCCCCCCCCCCCCCCCCCCCCCCCCCCCCCCCCCCCCCCCCCCCCCCCC
/* CCCCCCCCCCCCCCCCCCCCCCCCCCCCCCCCCCCCCCCCCCCCCCCCCCCCCCCCC
/* CCCCCCCCCCCCCCCCCCCCCCCCCCCCCCCCCCCCCCCCCCCCCCCCCCCCCCCCC
/* CCCCCCCCCCCCCCCCCCCCCCCCCCCCCCCCCCCCCCCCCCCCCCCCCCCCCCCCC
*  2005 04 19 01 02 00.00000000
PL06   4660.192562  -1978.759707  -4455.080174 999999.999999
*  2005 04 19 01 02 10.00000000
PL06   4706.942672  -1997.330160  -4397.203652 999999.999999
*  2005 04 19 01 02 20.00000000
PL06   4753.057637  -2015.710238  -4338.754952 999999.999999
*  2005 04 19 01 02 30.00000000
PL06   4798.531714  -2033.896610  -4279.741624 999999.999999
*  2005 04 19 01 02 40.00000000
PL06   4843.359249  -2051.885961  -4220.171290 999999.999999
*  2005 04 19 01 02 50.00000000
PL06   4887.534674  -2069.674991  -4160.051648 999999.999999
*  2005 04 19 01 03 00.00000000
PL06   4931.052510  -2087.260419  -4099.390469 999999.999999
*  2005 04 19 01 03 10.00000000
PL06   4973.907365  -2104.638982  -4038.195596 999999.999999
*  2005 04 19 01 03 20.00000000
PL06   5016.093938  -2121.807434  -3976.474943 999999.999999
*  2005 04 19 01 03 30.00000000
PL06   5057.607017  -2138.762551  -3914.236494 999999.999999
*  2005 04 19 01 03 40.00000000
PL06   5098.441481  -2155.501125  -3851.488303 999999.999999
*  2005 04 19 01 03 50.00000000
PL06   5138.592303  -2172.019971  -3788.238492 999999.999999
*  2005 04 19 01 04 00.00000000
PL06   5178.054544  -2188.315925  -3724.495248 999999.999999
*  2005 04 19 01 04 10.00000000
PL06   5216.823362  -2204.385841  -3660.266828 999999.999999
*  2005 04 19 01 04 20.00000000
PL06   5254.894005  -2220.226599  -3595.561551 999999.999999
*  2005 04 19 01 04 30.00000000
PL06   5292.261818  -2235.835098  -3530.387801 999999.999999
*  2005 04 19 01 04 40.00000000
PL06   5328.922238  -2251.208264  -3464.754024 999999.999999
*  2005 04 19 01 04 50.00000000
PL06   5364.870801  -2266.343043  -3398.668730 999999.999999
*  2005 04 19 01 05 00.00000000
PL06   5400.103136  -2281.236406  -3332.140486 999999.999999
*  2005 04 19 01 05 10.00000000
PL06   5434.614969  -2295.885350  -3265.177922 999999.999999
*  2005 04 19 01 05 20.00000000
PL06   5468.402124  -2310.286896  -3197.789726 999999.999999
*  2005 04 19 01 05 30.00000000
PL06   5501.460524  -2324.438092  -3129.984641 999999.999999
*  2005 04 19 01 05 40.00000000
PL06   5533.786186  -2338.336010  -3061.771469 999999.999999
*  2005 04 19 01 05 50.00000000
PL06   5565.375231  -2351.977752  -2993.159065 999999.999999
*  2005 04 19 01 06 00.00000000
PL06   5596.223874  -2365.360445  -2924.156340 999999.999999
*  2005 04 19 01 06 10.00000000
PL06   5626.328435  -2378.481245  -2854.772257 999999.999999
*  2005 04 19 01 06 20.00000000
PL06   5655.685331  -2391.337337  -2785.015830 999999.999999
*  2005 04 19 01 06 30.00000000
PL06   5684.291081  -2403.925935  -2714.896124 999999.999999
*  2005 04 19 01 06 40.00000000
PL06   5712.142305  -2416.244280  -2644.422253 999999.999999
*  2005 04 19 01 06 50.00000000
PL06   5739.235725  -2428.289647  -2573.603380 999999.999999
*  2005 04 19 01 07 00.00000000
PL06   5765.568164  -2440.059341  -2502.448713 999999.999999
*  2005 04 19 01 07 10.00000000
PL06   5791.136549  -2451.550694  -2430.967508 999999.999999
*  2005 04 19 01 07 20.00000000
PL06   5815.937909  -2462.761075  -2359.169063 999999.999999
*  2005 04 19 01 07 30.00000000
PL06   5839.969377  -2473.687883  -2287.062720 999999.999999
*  2005 04 19 01 07 40.00000000
PL06   5863.228188  -2484.328548  -2214.657865 999999.999999
*  2005 04 19 01 07 50.00000000
PL06   5885.711682  -2494.680536  -2141.963923 999999.999999
*  2005 04 19 01 08 00.00000000
PL06   5907.417304  -2504.741344  -2068.990358 999999.999999
*  2005 04 19 01 08 10.00000000
PL06   5928.342603  -2514.508505  -1995.746675 999999.999999
*  2005 04 19 01 08 20.00000000
PL06   5948.485234  -2523.979587  -1922.242414 999999.999999
*  2005 04 19 01 08 30.00000000
PL06   5967.842955  -2533.152191  -1848.487152 999999.999999
*  2005 04 19 01 08 40.00000000
PL06   5986.413632  -2542.023956  -1774.490499 999999.999999
*  2005 04 19 01 08 50.00000000
PL06   6004.195236  -2550.592557  -1700.262102 999999.999999
*  2005 04 19 01 09 00.00000000
PL06   6021.185846  -2558.855703  -1625.811635 999999.999999
*  2005 04 19 01 09 10.00000000
PL06   6037.383645  -2566.811143  -1551.148807 999999.999999
*  2005 04 19 01 09 20.00000000
PL06   6052.786924  -2574.456663  -1476.283354 999999.999999
*  2005 04 19 01 09 30.00000000
PL06   6067.394080  -2581.790086  -1401.225042 999999.999999
*  2005 04 19 01 09 40.00000000
PL06   6081.203620  -2588.809275  -1325.983663 999999.999999
*  2005 04 19 01 09 50.00000000
PL06   6094.214155  -2595.512129  -1250.569033 999999.999999
*  2005 04 19 01 10 00.00000000
PL06   6106.424405  -2601.896591  -1174.990994 999999.999999
*  2005 04 19 01 10 10.00000000
PL06   6117.833198  -2607.960639  -1099.259412 999999.999999
*  2005 04 19 01 10 20.00000000
PL06   6128.439467  -2613.702295  -1023.384171 999999.999999
*  2005 04 19 01 10 30.00000000
PL06   6138.242258  -2619.119621   -947.375179 999999.999999
*  2005 04 19 01 10 40.00000000
PL06   6147.240720  -2624.210718   -871.242361 999999.999999
*  2005 04 19 01 10 50.00000000
PL06   6155.434112  -2628.973732   -794.995660 999999.999999
*  2005 04 19 01 11 00.00000000
PL06   6162.821802  -2633.406847   -718.645035 999999.999999
*  2005 04 19 01 11 10.00000000
PL06   6169.403264  -2637.508293   -642.200460 999999.999999
*  2005 04 19 01 11 20.00000000
PL06   6175.178083  -2641.276342   -565.671924 999999.999999
*  2005 04 19 01 11 30.00000000
PL06   6180.145950  -2644.709307   -489.069425 999999.999999
*  2005 04 19 01 11 40.00000000
PL06   6184.306664  -2647.805548   -412.402976 999999.999999
*  2005 04 19 01 11 50.00000000
PL06   6187.660135  -2650.563466   -335.682597 999999.999999
*  2005 04 19 01 12 00.00000000
PL06   6190.206378  -2652.981508   -258.918317 999999.999999
*  2005 04 19 01 12 10.00000000
PL06   6191.945518  -2655.058165   -182.120171 999999.999999
*  2005 04 19 01 12 20.00000000
PL06   6192.877787  -2656.791973   -105.298201 999999.999999
*  2005 04 19 01 12 30.00000000
PL06   6193.003526  -2658.181515    -28.462452 999999.999999
*  2005 04 19 01 12 40.00000000
PL06   6192.323184  -2659.225417     48.377026 999999.999999
*  2005 04 19 01 12 50.00000000
PL06   6190.837317  -2659.922354    125.210183 999999.999999
*  2005 04 19 01 13 00.00000000
PL06   6188.546592  -2660.271046    202.026969 999999.999999
*  2005 04 19 01 13 10.00000000
PL06   6185.451779  -2660.270260    278.817335 999999.999999
*  2005 04 19 01 13 20.00000000
PL06   6181.553761  -2659.918809    355.571235 999999.999999
*  2005 04 19 01 13 30.00000000
PL06   6176.853524  -2659.215556    432.278626 999999.999999
*  2005 04 19 01 13 40.00000000
PL06   6171.352164  -2658.159410    508.929472 999999.999999
*  2005 04 19 01 13 50.00000000
PL06   6165.050882  -2656.749327    585.513744 999999.999999
*  2005 04 19 01 14 00.00000000
PL06   6157.950987  -2654.984314    662.021418 999999.999999
*  2005 04 19 01 14 10.00000000
PL06   6150.053895  -2652.863426    738.442483 999999.999999
*  2005 04 19 01 14 20.00000000
PL06   6141.361127  -2650.385764    814.766938 999999.999999
*  2005 04 19 01 14 30.00000000
PL06   6131.874311  -2647.550482    890.984792 999999.999999
*  2005 04 19 01 14 40.00000000
PL06   6121.595180  -2644.356782    967.086070 999999.999999
*  2005 04 19 01 14 50.00000000
PL06   6110.525574  -2640.803917   1043.060813 999999.999999
*  2005 04 19 01 15 00.00000000
PL06   6098.667437  -2636.891187   1118.899075 999999.999999
*  2005 04 19 01 15 10.00000000
PL06   6086.022817  -2632.617946   1194.590931 999999.999999
*  2005 04 19 01 15 20.00000000
PL06   6072.593868  -2627.983595   1270.126474 999999.999999
*  2005 04 19 01 15 30.00000000
PL06   6058.382845  -2622.987589   1345.495817 999999.999999
*  2005 04 19 01 15 40.00000000
PL06   6043.392109  -2617.629432   1420.689095 999999.999999
*  2005 04 19 01 15 50.00000000
PL06   6027.624124  -2611.908678   1495.696466 999999.999999
*  2005 04 19 01 16 00.00000000
PL06   6011.081455  -2605.824935   1570.508112 999999.999999
*  2005 04 19 01 16 10.00000000
PL06   5993.766771  -2599.377859   1645.114240 999999.999999
*  2005 04 19 01 16 20.00000000
PL06   5975.682841  -2592.567162   1719.505085 999999.999999
*  2005 04 19 01 16 30.00000000
PL06   5956.832537  -2585.392603   1793.670909 999999.999999
*  2005 04 19 01 16 40.00000000
PL06   5937.218832  -2577.853997   1867.602003 999999.999999
*  2005 04 19 01 16 50.00000000
PL06   5916.844799  -2569.951211   1941.288688 999999.999999
*  2005 04 19 01 17 00.00000000
PL06   5895.713614  -2561.684162   2014.721320 999999.999999
*  2005 04 19 01 17 10.00000000
PL06   5873.828551  -2553.052822   2087.890285 999999.999999
*  2005 04 19 01 17 20.00000000
PL06   5851.192983  -2544.057215   2160.786007 999999.999999
EOF
